QIANFAN-33              
1 61566U 24185Q   25212.62532230  .00000234  00000+0  15951-3 0  9991
2 61566  88.9788  93.7805 0008393  36.7143 323.4608 13.96406150 50447
QIANFAN-34              
1 61567U 24185R   25212.56956988  .00000303  00000+0  18900-3 0  9999
2 61567  88.9765  93.5276 0007391  47.3460 312.8342 14.02155918 50550
QIANFAN-35              
1 61568U 24185S   25212.62877927  .00000598  00000+0  23669-3 0  9996
2 61568  88.9789  92.6410 0007774  24.4595 335.6966 14.27655455 51045
QIANFAN-36              
1 61569U 24185T   25212.62123788  .00000090  00000+0  11243-3 0  9998
2 61569  88.9779  95.0339 0008172  73.3475 286.8575 13.55544153 49755
QIANFAN-37              
1 62238U 24232B   25212.56474022  .00000043  00000+0  47978-4 0  9991
2 62238  88.9926  54.9019 0002535  96.3368 263.8071 13.50964798 81056
QIANFAN-38              
1 62239U 24232C   25212.58952915  .00000033  00000+0  32561-4 0  9997
2 62239  88.9933  54.8061 0013209 217.1968 142.8269 13.50953264 81118
QIANFAN-39              
1 62240U 24232D   25212.61092302  .00000135  00000+0  50983-4 0  9999
2 62240  88.9931  52.6736 0017095 150.7058 209.5097 14.25228697 82289
QIANFAN-40              
1 62241U 24232E   25212.62239387  .00000019  00000+0  10292-4 0  9997
2 62241  88.9960  54.3495 0012057 225.4880 134.5286 13.50959391 81486
